FENGYUN 1C DEB          
1 36257U 99025DWJ 17345.25982522  .00001444  00000-0  54591-3 0  9993
2 36257  99.1090 146.6414 0025969 220.0949 139.8317 14.32745528224614
